      2.10          N: GNSS NAV DATA                        RINEX VERSION / TYPE
fic2rin                                 06/23/2021 00:17:07 PGM / RUN BY / DATE
                                                            END OF HEADER
 4 21  6 22  4  0  0.0-2.005524002016e-04-1.023181539495e-12 0.000000000000e+00
    1.390000000000e+02-1.584375000000e+01 5.198787978958e-09 2.526337237572e+00
   -7.431954145432e-07 1.264448743314e-03 5.448237061501e-06 5.153718692780e+03
    1.872000000000e+05-5.960464477539e-08-1.819448452748e+00-7.450580596924e-09
    9.600610599282e-01 2.762500000000e+02-2.933147028730e+00-8.258201130082e-09
   -1.439345668810e-10 1.000000000000e+00 2.163000000000e+03 0.000000000000e+00
    2.400000000000e+00 0.000000000000e+00-4.190951585770e-09 3.950000000000e+02
    1.800000000000e+05 4.000000000000e+00
13 21  6 22  4  0  0.0 1.479913480580e-04 4.888534022029e-12 0.000000000000e+00
    9.400000000000e+01-2.084375000000e+01 4.839487298357e-09 2.554678065716e+00
   -1.141801476479e-06 5.040073301643e-03 6.373971700668e-06 5.153673301697e+03
    1.872000000000e+05-6.332993507385e-08-1.721400432472e+00-7.450580596924e-08
    9.676684328972e-01 2.605625000000e+02 9.595390644250e-01-7.992475775840e-09
   -3.092985978138e-10 1.000000000000e+00 2.163000000000e+03 0.000000000000e+00
    2.400000000000e+00 0.000000000000e+00-1.117587089539e-08 9.400000000000e+01
    1.800000000000e+05 4.000000000000e+00
 7 21  6 22  4  0  0.0 1.843268983066e-04 9.549694368616e-12 0.000000000000e+00
    8.600000000000e+01 2.196875000000e+01 4.771627328860e-09 2.983345106699e-01
    1.400709152222e-06 1.509480841924e-02 1.112930476665e-05 5.153754882812e+03
    1.872000000000e+05-1.080334186554e-07-7.977306403403e-01 2.365559339523e-07
    9.515404281639e-01 1.600000000000e+02-2.323849851297e+00-8.203913154484e-09
   -6.382408710084e-10 1.000000000000e+00 2.163000000000e+03 0.000000000000e+00
    2.400000000000e+00 0.000000000000e+00-1.117587089539e-08 8.600000000000e+01
    1.800000000000e+05 4.000000000000e+00
14 21  6 22  4  0  0.0 6.421189755201e-05-7.844391802792e-12 0.000000000000e+00
    1.700000000000e+02 1.276562500000e+02 4.466614623856e-09-2.611272695932e-01
    6.502494215965e-06 8.081556297839e-04 6.193295121193e-06 5.153758239746e+03
    1.872000000000e+05 2.235174179077e-08 2.850330933439e-01-2.235174179077e-08
    9.571218468467e-01 2.619375000000e+02 2.851061570318e+00-8.173911904812e-09
    6.428839215530e-11 1.000000000000e+00 2.163000000000e+03 0.000000000000e+00
    2.400000000000e+00 0.000000000000e+00-7.916241884232e-09 9.380000000000e+02
    1.800000000000e+05 4.000000000000e+00
29 21  6 22  4  0  0.0-3.681071102619e-04-6.252776074689e-12 0.000000000000e+00
    8.500000000000e+01-6.121875000000e+01 4.160173287916e-09-3.057550871404e+00
   -3.118067979813e-06 1.947230426595e-03 1.512467861176e-06 5.153620828629e+03
    1.872000000000e+05-3.166496753693e-08 1.361448447210e+00 2.048909664154e-08
    9.835914959739e-01 3.634062500000e+02 2.183999264359e+00-8.248557871259e-09
   -2.460816788611e-10 1.000000000000e+00 2.163000000000e+03 0.000000000000e+00
    2.400000000000e+00 0.000000000000e+00-9.778887033463e-09 8.500000000000e+01
    1.800000000000e+05 4.000000000000e+00
31 21  6 22  4  0  0.0-1.244344748557e-04-2.160049916711e-12 0.000000000000e+00
    6.900000000000e+01 3.975000000000e+01 4.543760694443e-09-2.509967008715e-01
    1.989305019379e-06 1.003624801524e-02 1.221336424351e-05 5.153558403015e+03
    1.872000000000e+05 1.098960638046e-07-7.805769866675e-01 3.911554813385e-08
    9.558627322738e-01 1.410625000000e+02 2.645076519540e-01-8.014262397626e-09
   -6.285976121851e-10 1.000000000000e+00 2.163000000000e+03 0.000000000000e+00
    2.400000000000e+00 0.000000000000e+00-1.303851604462e-08 6.900000000000e+01
    1.800000000000e+05 4.000000000000e+00
16 21  6 22  4  0  0.0-3.451383672655e-04-6.025402399246e-12 0.000000000000e+00
    5.000000000000e+01 1.481875000000e+02 4.149458555890e-09-2.269957407786e+00
    7.634982466698e-06 1.218260149471e-02 5.653128027916e-06 5.153719442368e+03
    1.872000000000e+05 7.823109626770e-08 3.312852935794e-01-1.508742570877e-07
    9.736965316717e-01 2.782500000000e+02 6.789948269514e-01-7.963903157104e-09
    3.321566928024e-10 1.000000000000e+00 2.163000000000e+03 0.000000000000e+00
    2.400000000000e+00 0.000000000000e+00-1.024454832077e-08 5.000000000000e+01
    1.800000000000e+05 4.000000000000e+00
27 21  6 22  4  0  0.0-1.510675065219e-04-6.139089236967e-12 0.000000000000e+00
    1.140000000000e+02-3.934375000000e+01 4.305179328000e-09 3.061893330136e+00
   -2.095475792885e-06 9.450479876250e-03 2.793967723846e-07 5.153685998917e+03
    1.872000000000e+05-1.490116119385e-08 1.288004400542e+00-3.166496753693e-08
    9.755131014191e-01 3.824687500000e+02 6.349147469991e-01-8.300345742717e-09
   -1.246480492344e-10 1.000000000000e+00 2.163000000000e+03 0.000000000000e+00
    3.400000000000e+00 0.000000000000e+00 1.862645149231e-09 1.140000000000e+02
    1.800000000000e+05 4.000000000000e+00
15 21  6 22  4  0  0.0-1.407149247825e-04 2.614797267597e-12 0.000000000000e+00
    6.700000000000e+01-1.631250000000e+01 5.838100323169e-09 2.210744543344e+00
   -1.017004251480e-06 1.324743661098e-02 5.232170224190e-06 5.153623310089e+03
    1.872000000000e+05-8.568167686462e-08-1.970302290245e+00-2.905726432800e-07
    9.286918948080e-01 2.627812500000e+02 9.917838313661e-01-8.461423880839e-09
   -2.678683006471e-11 1.000000000000e+00 2.163000000000e+03 0.000000000000e+00
    2.400000000000e+00 0.000000000000e+00-1.071020960808e-08 6.700000000000e+01
    1.800000000000e+05 4.000000000000e+00
22 21  6 22  4  0  0.0-5.823643878102e-04 9.663381206337e-12 0.000000000000e+00
    7.000000000000e+01-2.937500000000e+00 5.119856119701e-09 2.087626683197e+00
   -2.663582563400e-07 6.997661083005e-03 9.888783097267e-06 5.153802114487e+03
    1.872000000000e+05 1.471489667892e-07-3.000397425499e+00-5.587935447693e-09
    9.355974694014e-01 1.775937500000e+02-9.368280790155e-01-8.092122783681e-09
    6.339549781980e-10 1.000000000000e+00 2.163000000000e+03 0.000000000000e+00
    2.400000000000e+00 0.000000000000e+00-1.769512891769e-08 7.000000000000e+01
    1.800000000000e+05 4.000000000000e+00
26 21  6 22  4  0  0.0 1.014214940369e-04 4.774847184308e-12 0.000000000000e+00
    1.040000000000e+02 1.556562500000e+02 4.807343102279e-09-1.382413856823e+00
    8.050352334976e-06 5.909325671382e-03 6.768852472305e-06 5.153584495544e+03
    1.872000000000e+05 6.332993507385e-08 1.962665480438e-01-1.862645149231e-07
    9.419430521204e-01 2.416250000000e+02 3.044159898622e-01-8.311417632477e-09
    1.714357124141e-10 1.000000000000e+00 2.163000000000e+03 0.000000000000e+00
    3.400000000000e+00 0.000000000000e+00 6.984919309616e-09 1.040000000000e+02
    1.800000000000e+05 4.000000000000e+00
25 21  6 22  4  0  0.0 1.602410338819e-04 6.821210263297e-12 0.000000000000e+00
    6.600000000000e+01 1.438750000000e+02 4.519473968517e-09-6.998644271340e-01
    7.502734661102e-06 9.853731025942e-03 5.872920155525e-06 5.153619672775e+03
    1.872000000000e+05 7.078051567078e-08 2.387867769649e-01 1.862645149231e-07
    9.610195433729e-01 2.663750000000e+02 9.708818699726e-01-8.369991500885e-09
    1.157191058795e-10 1.000000000000e+00 2.163000000000e+03 0.000000000000e+00
    2.400000000000e+00 0.000000000000e+00 5.587935447693e-09 6.600000000000e+01
    1.800000000000e+05 4.000000000000e+00
24 21  6 22  4  0  0.0 1.433389261365e-04 1.716671249596e-11 0.000000000000e+00
    3.300000000000e+01 2.459375000000e+01 5.165572309678e-09 1.258183892204e+00
    1.439824700356e-06 1.115933584515e-02 1.113861799240e-05 5.153728460312e+03
    1.872000000000e+05-9.126961231232e-08-8.764313685987e-01 1.899898052216e-07
    9.348752472265e-01 1.531875000000e+02 7.406967835998e-01-8.319989418098e-09
   -6.639562278705e-10 1.000000000000e+00 2.163000000000e+03 0.000000000000e+00
    2.400000000000e+00 0.000000000000e+00 2.793967723846e-09 3.300000000000e+01
    1.800000000000e+05 4.000000000000e+00
30 21  6 22  4  0  0.0-4.419204778969e-04-4.661160346586e-12 0.000000000000e+00
    7.500000000000e+01 2.509375000000e+01 4.982707549770e-09 1.410771983973e-01
    1.231208443642e-06 5.308078019880e-03 1.113303005695e-05 5.153691570282e+03
    1.872000000000e+05 1.303851604462e-08-7.809488838500e-01 5.774199962616e-08
    9.367617751794e-01 1.485937500000e+02-2.755627171687e+00-8.203555996750e-09
   -5.732381633847e-10 1.000000000000e+00 2.163000000000e+03 0.000000000000e+00
    2.400000000000e+00 0.000000000000e+00 3.725290298462e-09 7.500000000000e+01
    1.800000000000e+05 4.000000000000e+00
20 21  6 22  4  0  0.0 5.209278315306e-04-3.410605131648e-13 0.000000000000e+00
    8.600000000000e+01 5.062500000000e+00 5.030923843886e-09 1.627394084730e+00
    4.097819328308e-08 6.090284907259e-03 9.961426258087e-06 5.151740633011e+03
    1.872000000000e+05-3.725290298462e-08-3.046729126555e+00 1.005828380585e-07
    9.389029371903e-01 1.757500000000e+02 3.040535669761e+00-8.181412217230e-09
    6.014536243862e-10 1.000000000000e+00 2.163000000000e+03 0.000000000000e+00
    2.400000000000e+00 0.000000000000e+00-8.381903171539e-09 8.600000000000e+01
    1.800000000000e+05 4.000000000000e+00
17 21  6 22  4  0  0.0 4.622675478458e-04 5.911715561524e-12 0.000000000000e+00
    4.700000000000e+01-5.184375000000e+01 4.069812381164e-09 3.124884062021e+00
   -2.555549144745e-06 1.334712945390e-02 1.035630702972e-06 5.153616325378e+03
    1.872000000000e+05 1.601874828339e-07 1.348926863235e+00-4.097819328308e-08
    9.817198693045e-01 3.704687500000e+02-1.565134876253e+00-7.969974838586e-09
   -1.414344627416e-10 1.000000000000e+00 2.163000000000e+03 0.000000000000e+00
    3.400000000000e+00 0.000000000000e+00-1.117587089539e-08 4.700000000000e+01
    1.800000000000e+05 4.000000000000e+00
